ISS (ZARYA)             
1 25544U 98067A   25340.02693099  .00014013  00000+0  25886-3 0  9992
2 25544  51.6296 175.7148 0003614 210.2448 149.8333 15.49350538541812
CSS (TIANHE)            
1 48274U 21035A   25340.24443909  .00033378  00000+0  42196-3 0  9993
2 48274  41.4683  56.1283 0009604 339.9163  20.1296 15.58781586263017
ISS (NAUKA)             
1 49044U 21066A   25340.02693099  .00014013  00000+0  25886-3 0  9998
2 49044  51.6296 175.7148 0003614 210.2448 149.8333 15.49350538230447
FREGAT DEB              
1 49271U 11037PF  25340.01288556  .00007067  00000+0  15815-1 0  9994
2 49271  51.6281 219.3181 0866673 209.1615 145.8081 12.34381445201109
CSS (WENTIAN)           
1 53239U 22085A   25340.24443909  .00033378  00000+0  42196-3 0  9996
2 53239  41.4683  56.1283 0009604 339.9163  20.1296 15.58781586173845
CSS (MENGTIAN)          
1 54216U 22143A   25340.24443909  .00033378  00000+0  42196-3 0  9997
2 54216  41.4683  56.1283 0009604 339.9163  20.1296 15.58781586158642
SOYUZ-MS 27             
1 63520U 25072A   25340.02693099  .00014013  00000+0  25886-3 0  9994
2 63520  51.6296 175.7148 0003614 210.2448 149.8333 15.49350538 20203
SHENZHOU-20 (SZ-20)     
1 63632U 25082A   25340.24443909  .00033378  00000+0  42196-3 0  9994
2 63632  41.4683  56.1283 0009604 339.9163  20.1296 15.58781586255305
PROGRESS-MS 31          
1 64751U 25146A   25340.02693099  .00014013  00000+0  25886-3 0  9993
2 64751  51.6296 175.7148 0003614 210.2448 149.8333 15.49350538  6754
TIANZHOU-9              
1 64786U 25149A   25340.24443909  .00033378  00000+0  42196-3 0  9999
2 64786  41.4683  56.1283 0009604 339.9163  20.1296 15.58781586255306
CREW DRAGON 11          
1 65077U 25166A   25340.02693099  .00014013  00000+0  25886-3 0  9997
2 65077  51.6296 175.7148 0003614 210.2448 149.8333 15.49350538  2145
DRAGON CRS-33           
1 65304U 25186A   25340.02693099  .00014013  00000+0  25886-3 0  9992
2 65304  51.6296 175.7148 0003614 210.2448 149.8333 15.49350538   113
