CCSDS_OMM_VERS = 2.0
CREATION_DATE  = 
ORIGINATOR     = 

OBJECT_NAME    = ISS (ZARYA)
OBJECT_ID      = 1998-067A
CENTER_NAME    = EARTH
REF_FRAME      = TEME
TIME_SYSTEM    = UTC
MEAN_ELEMENT_THEORY = SGP/SGP4

EPOCH          = 2025-12-06T00:38:46.837536
MEAN_MOTION    = 15.49350538
ECCENTRICITY   = .00036145
INCLINATION    = 51.6296
RA_OF_ASC_NODE = 175.7148
ARG_OF_PERICENTER = 210.2448
MEAN_ANOMALY   = 149.8333

EPHEMERIS_TYPE = 0
CLASSIFICATION_TYPE = U
NORAD_CAT_ID   = 25544
ELEMENT_SET_NO = 999
REV_AT_EPOCH   = 54181
BSTAR          = .25885847E-3
MEAN_MOTION_DOT = .14013E-3
MEAN_MOTION_DDOT = 0

CCSDS_OMM_VERS = 2.0
CREATION_DATE  = 
ORIGINATOR     = 

OBJECT_NAME    = CSS (TIANHE)
OBJECT_ID      = 2021-035A
CENTER_NAME    = EARTH
REF_FRAME      = TEME
TIME_SYSTEM    = UTC
MEAN_ELEMENT_THEORY = SGP/SGP4

EPOCH          = 2025-12-06T05:51:59.537376
MEAN_MOTION    = 15.58781586
ECCENTRICITY   = .00096041
INCLINATION    = 41.4683
RA_OF_ASC_NODE = 56.1283
ARG_OF_PERICENTER = 339.9163
MEAN_ANOMALY   = 20.1296

EPHEMERIS_TYPE = 0
CLASSIFICATION_TYPE = U
NORAD_CAT_ID   = 48274
ELEMENT_SET_NO = 999
REV_AT_EPOCH   = 26301
BSTAR          = .42196391E-3
MEAN_MOTION_DOT = .33378E-3
MEAN_MOTION_DDOT = 0

CCSDS_OMM_VERS = 2.0
CREATION_DATE  = 
ORIGINATOR     = 

OBJECT_NAME    = ISS (NAUKA)
OBJECT_ID      = 2021-066A
CENTER_NAME    = EARTH
REF_FRAME      = TEME
TIME_SYSTEM    = UTC
MEAN_ELEMENT_THEORY = SGP/SGP4

EPOCH          = 2025-12-06T00:38:46.837536
MEAN_MOTION    = 15.49350538
ECCENTRICITY   = .00036145
INCLINATION    = 51.6296
RA_OF_ASC_NODE = 175.7148
ARG_OF_PERICENTER = 210.2448
MEAN_ANOMALY   = 149.8333

EPHEMERIS_TYPE = 0
CLASSIFICATION_TYPE = U
NORAD_CAT_ID   = 49044
ELEMENT_SET_NO = 999
REV_AT_EPOCH   = 23044
BSTAR          = .25885847E-3
MEAN_MOTION_DOT = .14013E-3
MEAN_MOTION_DDOT = 0

CCSDS_OMM_VERS = 2.0
CREATION_DATE  = 
ORIGINATOR     = 

OBJECT_NAME    = FREGAT DEB
OBJECT_ID      = 2011-037PF
CENTER_NAME    = EARTH
REF_FRAME      = TEME
TIME_SYSTEM    = UTC
MEAN_ELEMENT_THEORY = SGP/SGP4

EPOCH          = 2025-12-06T00:18:33.312384
MEAN_MOTION    = 12.34381445
ECCENTRICITY   = .08666736
INCLINATION    = 51.6281
RA_OF_ASC_NODE = 219.3181
ARG_OF_PERICENTER = 209.1615
MEAN_ANOMALY   = 145.8081

EPHEMERIS_TYPE = 0
CLASSIFICATION_TYPE = U
NORAD_CAT_ID   = 49271
ELEMENT_SET_NO = 999
REV_AT_EPOCH   = 20110
BSTAR          = .15814816E-1
MEAN_MOTION_DOT = .7067E-4
MEAN_MOTION_DDOT = 0

CCSDS_OMM_VERS = 2.0
CREATION_DATE  = 
ORIGINATOR     = 

OBJECT_NAME    = CSS (WENTIAN)
OBJECT_ID      = 2022-085A
CENTER_NAME    = EARTH
REF_FRAME      = TEME
TIME_SYSTEM    = UTC
MEAN_ELEMENT_THEORY = SGP/SGP4

EPOCH          = 2025-12-06T05:51:59.537376
MEAN_MOTION    = 15.58781586
ECCENTRICITY   = .00096041
INCLINATION    = 41.4683
RA_OF_ASC_NODE = 56.1283
ARG_OF_PERICENTER = 339.9163
MEAN_ANOMALY   = 20.1296

EPHEMERIS_TYPE = 0
CLASSIFICATION_TYPE = U
NORAD_CAT_ID   = 53239
ELEMENT_SET_NO = 999
REV_AT_EPOCH   = 17384
BSTAR          = .42196391E-3
MEAN_MOTION_DOT = .33378E-3
MEAN_MOTION_DDOT = 0

CCSDS_OMM_VERS = 2.0
CREATION_DATE  = 
ORIGINATOR     = 

OBJECT_NAME    = CSS (MENGTIAN)
OBJECT_ID      = 2022-143A
CENTER_NAME    = EARTH
REF_FRAME      = TEME
TIME_SYSTEM    = UTC
MEAN_ELEMENT_THEORY = SGP/SGP4

EPOCH          = 2025-12-06T05:51:59.537376
MEAN_MOTION    = 15.58781586
ECCENTRICITY   = .00096041
INCLINATION    = 41.4683
RA_OF_ASC_NODE = 56.1283
ARG_OF_PERICENTER = 339.9163
MEAN_ANOMALY   = 20.1296

EPHEMERIS_TYPE = 0
CLASSIFICATION_TYPE = U
NORAD_CAT_ID   = 54216
ELEMENT_SET_NO = 999
REV_AT_EPOCH   = 15864
BSTAR          = .42196391E-3
MEAN_MOTION_DOT = .33378E-3
MEAN_MOTION_DDOT = 0

CCSDS_OMM_VERS = 2.0
CREATION_DATE  = 
ORIGINATOR     = 

OBJECT_NAME    = SOYUZ-MS 27
OBJECT_ID      = 2025-072A
CENTER_NAME    = EARTH
REF_FRAME      = TEME
TIME_SYSTEM    = UTC
MEAN_ELEMENT_THEORY = SGP/SGP4

EPOCH          = 2025-12-06T00:38:46.837536
MEAN_MOTION    = 15.49350538
ECCENTRICITY   = .00036145
INCLINATION    = 51.6296
RA_OF_ASC_NODE = 175.7148
ARG_OF_PERICENTER = 210.2448
MEAN_ANOMALY   = 149.8333

EPHEMERIS_TYPE = 0
CLASSIFICATION_TYPE = U
NORAD_CAT_ID   = 63520
ELEMENT_SET_NO = 999
REV_AT_EPOCH   = 2020
BSTAR          = .25885847E-3
MEAN_MOTION_DOT = .14013E-3
MEAN_MOTION_DDOT = 0

CCSDS_OMM_VERS = 2.0
CREATION_DATE  = 
ORIGINATOR     = 

OBJECT_NAME    = SHENZHOU-20 (SZ-20)
OBJECT_ID      = 2025-082A
CENTER_NAME    = EARTH
REF_FRAME      = TEME
TIME_SYSTEM    = UTC
MEAN_ELEMENT_THEORY = SGP/SGP4

EPOCH          = 2025-12-06T05:51:59.537376
MEAN_MOTION    = 15.58781586
ECCENTRICITY   = .00096041
INCLINATION    = 41.4683
RA_OF_ASC_NODE = 56.1283
ARG_OF_PERICENTER = 339.9163
MEAN_ANOMALY   = 20.1296

EPHEMERIS_TYPE = 0
CLASSIFICATION_TYPE = U
NORAD_CAT_ID   = 63632
ELEMENT_SET_NO = 999
REV_AT_EPOCH   = 25530
BSTAR          = .42196391E-3
MEAN_MOTION_DOT = .33378E-3
MEAN_MOTION_DDOT = 0

CCSDS_OMM_VERS = 2.0
CREATION_DATE  = 
ORIGINATOR     = 

OBJECT_NAME    = PROGRESS-MS 31
OBJECT_ID      = 2025-146A
CENTER_NAME    = EARTH
REF_FRAME      = TEME
TIME_SYSTEM    = UTC
MEAN_ELEMENT_THEORY = SGP/SGP4

EPOCH          = 2025-12-06T00:38:46.837536
MEAN_MOTION    = 15.49350538
ECCENTRICITY   = .00036145
INCLINATION    = 51.6296
RA_OF_ASC_NODE = 175.7148
ARG_OF_PERICENTER = 210.2448
MEAN_ANOMALY   = 149.8333

EPHEMERIS_TYPE = 0
CLASSIFICATION_TYPE = U
NORAD_CAT_ID   = 64751
ELEMENT_SET_NO = 999
REV_AT_EPOCH   = 675
BSTAR          = .25885847E-3
MEAN_MOTION_DOT = .14013E-3
MEAN_MOTION_DDOT = 0

CCSDS_OMM_VERS = 2.0
CREATION_DATE  = 
ORIGINATOR     = 

OBJECT_NAME    = TIANZHOU-9
OBJECT_ID      = 2025-149A
CENTER_NAME    = EARTH
REF_FRAME      = TEME
TIME_SYSTEM    = UTC
MEAN_ELEMENT_THEORY = SGP/SGP4

EPOCH          = 2025-12-06T05:51:59.537376
MEAN_MOTION    = 15.58781586
ECCENTRICITY   = .00096041
INCLINATION    = 41.4683
RA_OF_ASC_NODE = 56.1283
ARG_OF_PERICENTER = 339.9163
MEAN_ANOMALY   = 20.1296

EPHEMERIS_TYPE = 0
CLASSIFICATION_TYPE = U
NORAD_CAT_ID   = 64786
ELEMENT_SET_NO = 999
REV_AT_EPOCH   = 25530
BSTAR          = .42196391E-3
MEAN_MOTION_DOT = .33378E-3
MEAN_MOTION_DDOT = 0

CCSDS_OMM_VERS = 2.0
CREATION_DATE  = 
ORIGINATOR     = 

OBJECT_NAME    = CREW DRAGON 11
OBJECT_ID      = 2025-166A
CENTER_NAME    = EARTH
REF_FRAME      = TEME
TIME_SYSTEM    = UTC
MEAN_ELEMENT_THEORY = SGP/SGP4

EPOCH          = 2025-12-06T00:38:46.837536
MEAN_MOTION    = 15.49350538
ECCENTRICITY   = .00036145
INCLINATION    = 51.6296
RA_OF_ASC_NODE = 175.7148
ARG_OF_PERICENTER = 210.2448
MEAN_ANOMALY   = 149.8333

EPHEMERIS_TYPE = 0
CLASSIFICATION_TYPE = U
NORAD_CAT_ID   = 65077
ELEMENT_SET_NO = 999
REV_AT_EPOCH   = 214
BSTAR          = .25885847E-3
MEAN_MOTION_DOT = .14013E-3
MEAN_MOTION_DDOT = 0

CCSDS_OMM_VERS = 2.0
CREATION_DATE  = 
ORIGINATOR     = 

OBJECT_NAME    = DRAGON CRS-33
OBJECT_ID      = 2025-186A
CENTER_NAME    = EARTH
REF_FRAME      = TEME
TIME_SYSTEM    = UTC
MEAN_ELEMENT_THEORY = SGP/SGP4

EPOCH          = 2025-12-06T00:38:46.837536
MEAN_MOTION    = 15.49350538
ECCENTRICITY   = .00036145
INCLINATION    = 51.6296
RA_OF_ASC_NODE = 175.7148
ARG_OF_PERICENTER = 210.2448
MEAN_ANOMALY   = 149.8333

EPHEMERIS_TYPE = 0
CLASSIFICATION_TYPE = U
NORAD_CAT_ID   = 65304
ELEMENT_SET_NO = 999
REV_AT_EPOCH   = 11
BSTAR          = .25885847E-3
MEAN_MOTION_DOT = .14013E-3
MEAN_MOTION_DDOT = 0

